IRIDIUM 136             
1 42962U 17061H   24148.61404162  .00000201  00000+0  64656-4 0  9994
2 42962  86.3964 338.9244 0002089  79.8753 280.2678 14.34220010347253
